TECHSAT 1B (GO-32)      
1 25397U 98043D   26176.98524631  .00000059  00000+0  45556-4 0  9992
2 25397  99.0071 169.9659 0001499 146.3485 213.7789 14.24429963452588
TERRA                   
1 25994U 99068A   26177.18943382  .00000370  00000+0  84279-4 0  9995
2 25994  97.9451 226.3786 0002293 163.3171 233.0500 14.61109674410926
TERRASAR-X              
1 31698U 07026A   26175.56897117  .00001644  00000+0  81449-4 0  9991
2 31698  97.4447 183.1695 0001626  88.3572 271.7849 15.19150427 54344
THEOS                   
1 33396U 08049A   26177.19856764  .00000118  00000+0  75268-4 0  9995
2 33396  98.5571 234.1897 0001164  82.4778 277.6531 14.20134655919240
TANDEM-X                
1 36605U 10030A   26175.56897165  .00000223  00000+0  13790-4 0  9992
2 36605  97.4453 183.1708 0001789  93.6569 266.4871 15.19149086887769
SUOMI NPP               
1 37849U 11061A   26177.15129644  .00000060  00000+0  49587-4 0  9997
2 37849  98.7954 117.9661 0001015 341.3576  18.7563 14.19519144759710
SWOT                    
1 54754U 22173A   26177.13439976  .00000025  00000+0  18587-4 0  9994
2 54754  77.6102  23.2312 0000283  85.7977 274.3207 14.00170618180405
TIANMU-1 03             
1 55973U 23039A   26177.16820927  .00016302  00000+0  31863-3 0  9999
2 55973  97.5231 351.4906 0003992  77.8303 282.3393 15.47526611182220
STRIX-6                 
1 68291U 26056A   26176.72018475  .00003856  00000+0  32481-3 0  9993
2 68291  50.2836 309.4584 0016471 276.5003  83.4071 15.00218799 14557
STRIX-7                 
1 69177U 26112A   26177.22093472  .00003063  00000+0  24984-3 0  9995
2 69177  44.9058 144.9998 0022942  99.8117 260.5347 15.01473894  5239
